*******************************************************************************
Ephemeris / WWW_USER Mon Jul 15 19:13:54 2024 Pasadena, USA      / Horizons    
*******************************************************************************
Target body name: (2018 VS1)                      {source: JPL#4}
Center body name: Earth (399)                     {source: DE441}
Center-site name: Gemini South Obs., Cerro Pachon
*******************************************************************************
Start time      : A.D. 2018-Oct-23 23:07:00.0000 UT      
Stop  time      : A.D. 2018-Oct-24 09:46:00.0000 UT      
Step-size       : 1 minutes
*******************************************************************************
Target pole/equ : undefined
Target radii    : undefined                                                    
Center geodetic : 289.2634, -30.2406227, 2.71233  {E-lon(deg),Lat(deg),Alt(km)}
Center cylindric: 289.2634,5517.21435,-3194.81213 {E-lon(deg),Dxy(km),Dz(km)}
Center pole/equ : ITRF93                          {East-longitude positive}
Center radii    : 6378.137, 6378.137, 6356.752 km {Equator_a, b, pole_c}       
Target primary  : Sun
Vis. interferer : MOON (R_eq= 1737.400) km        {source: DE441}
Rel. light bend : Sun                             {source: DE441}
Rel. lght bnd GM: 1.3271E+11 km^3/s^2                                          
Small-body perts: Yes                             {source: SB441-N16}
Atmos refraction: NO (AIRLESS)
RA format       : HMS
Time format     : CAL 
Calendar mode   : Mixed Julian/Gregorian
RTS-only print  : NO       
EOP file        : eop.240715.p241008                                           
EOP coverage    : DATA-BASED 1962-JAN-20 TO 2024-JUL-15. PREDICTS-> 2024-OCT-07
Units conversion: 1 au= 149597870.700 km, c= 299792.458 km/s, 1 day= 86400.0 s 
Table cut-offs 1: Elevation (-90.0deg=NO ),Airmass (>38.000=NO), Daylight (YES)
Table cut-offs 2: Solar elongation (  0.0,180.0=NO ),Local Hour Angle( 0.0=NO )
Table cut-offs 3: RA/DEC angular rate (     0.0=NO )                           
*******************************************************************************
Initial IAU76/J2000 heliocentric ecliptic osculating elements (au, days, deg.):
  EPOCH=  2458427.5 ! 2018-Nov-05.00 (TDB)         Residual RMS= .21634        
   EC= .3907275528854954   QR= .7806320880190512   TP= 2458486.1030618688      
   OM= 55.95483604725189   W=  67.17004921097404   IN= 3.601110299269385       
  Equivalent ICRF heliocentric cartesian coordinates (au, au/d):
   X= 7.595935200506908E-01  Y= 6.354459268576240E-01  Z= 2.586666727482118E-01
  VX=-1.643099138746886E-02 VY= 7.530892270769961E-03 VZ= 4.533522122669557E-03
Asteroid physical parameters (km, seconds, rotational period in hours):        
   GM= n.a.                RAD= n.a.               ROTPER= n.a.                
   H= 26.6                 G= .150                 B-V= n.a.                   
                           ALBEDO= n.a.            STYP= n.a.                  
*******************************************************************************
 Date__(UT)__HR:MN     R.A._________(ICRF)_________DEC
******************************************************
$$SOE
 2018-Oct-24 01:10  m  02 47 23.990130 +00 11 33.03741
 2018-Oct-24 01:11  m  02 47 23.990599 +00 11 32.20911
 2018-Oct-24 01:12  m  02 47 23.990989 +00 11 31.38075
 2018-Oct-24 01:13  m  02 47 23.991299 +00 11 30.55232
 2018-Oct-24 01:14  m  02 47 23.991531 +00 11 29.72384
 2018-Oct-24 01:15  m  02 47 23.991684 +00 11 28.89529
 2018-Oct-24 01:16  m  02 47 23.991759 +00 11 28.06669
 2018-Oct-24 01:17  m  02 47 23.991755 +00 11 27.23802
 2018-Oct-24 01:18  m  02 47 23.991673 +00 11 26.40929
 2018-Oct-24 01:19  m  02 47 23.991513 +00 11 25.58050
 2018-Oct-24 01:20  m  02 47 23.991275 +00 11 24.75165
 2018-Oct-24 01:21  m  02 47 23.990960 +00 11 23.92274
 2018-Oct-24 01:22  m  02 47 23.990567 +00 11 23.09376
 2018-Oct-24 01:23  m  02 47 23.990097 +00 11 22.26473
 2018-Oct-24 01:24  m  02 47 23.989550 +00 11 21.43564
 2018-Oct-24 01:25  m  02 47 23.988926 +00 11 20.60648
 2018-Oct-24 01:26  m  02 47 23.988225 +00 11 19.77726
 2018-Oct-24 01:27  m  02 47 23.987448 +00 11 18.94798
 2018-Oct-24 01:28  m  02 47 23.986595 +00 11 18.11864
 2018-Oct-24 01:29  m  02 47 23.985665 +00 11 17.28924
 2018-Oct-24 01:30  m  02 47 23.984659 +00 11 16.45978
 2018-Oct-24 01:31  m  02 47 23.983578 +00 11 15.63025
 2018-Oct-24 01:32  m  02 47 23.982421 +00 11 14.80067
 2018-Oct-24 01:33  m  02 47 23.981188 +00 11 13.97102
 2018-Oct-24 01:34  m  02 47 23.979881 +00 11 13.14132
 2018-Oct-24 01:35  m  02 47 23.978499 +00 11 12.31155
 2018-Oct-24 01:36  m  02 47 23.977041 +00 11 11.48172
 2018-Oct-24 01:37  m  02 47 23.975510 +00 11 10.65182
 2018-Oct-24 01:38  m  02 47 23.973903 +00 11 09.82187
 2018-Oct-24 01:39  m  02 47 23.972223 +00 11 08.99186
 2018-Oct-24 01:40  m  02 47 23.970469 +00 11 08.16178
 2018-Oct-24 01:41  m  02 47 23.968641 +00 11 07.33164
 2018-Oct-24 01:42  m  02 47 23.966740 +00 11 06.50144
 2018-Oct-24 01:43  m  02 47 23.964765 +00 11 05.67118
 2018-Oct-24 01:44  m  02 47 23.962717 +00 11 04.84086
 2018-Oct-24 01:45  m  02 47 23.960596 +00 11 04.01048
 2018-Oct-24 01:46  m  02 47 23.958403 +00 11 03.18003
 2018-Oct-24 01:47  m  02 47 23.956137 +00 11 02.34953
 2018-Oct-24 01:48  m  02 47 23.953799 +00 11 01.51896
 2018-Oct-24 01:49  m  02 47 23.951389 +00 11 00.68833
 2018-Oct-24 01:50  m  02 47 23.948907 +00 10 59.85764
 2018-Oct-24 01:51  m  02 47 23.946353 +00 10 59.02688
 2018-Oct-24 01:52  m  02 47 23.943729 +00 10 58.19607
 2018-Oct-24 01:53  m  02 47 23.941033 +00 10 57.36519
 2018-Oct-24 01:54  m  02 47 23.938266 +00 10 56.53426
 2018-Oct-24 01:55  m  02 47 23.935429 +00 10 55.70326
 2018-Oct-24 01:56  m  02 47 23.932521 +00 10 54.87220
 2018-Oct-24 01:57  m  02 47 23.929543 +00 10 54.04107
 2018-Oct-24 01:58  m  02 47 23.926495 +00 10 53.20989
 2018-Oct-24 01:59  m  02 47 23.923377 +00 10 52.37864
 2018-Oct-24 02:00  m  02 47 23.920190 +00 10 51.54734
 2018-Oct-24 02:01  m  02 47 23.916933 +00 10 50.71597
 2018-Oct-24 02:02  m  02 47 23.913608 +00 10 49.88453
 2018-Oct-24 02:03  m  02 47 23.910213 +00 10 49.05304
 2018-Oct-24 02:04  m  02 47 23.906750 +00 10 48.22149
 2018-Oct-24 02:05  m  02 47 23.903219 +00 10 47.38987
 2018-Oct-24 02:06  m  02 47 23.899620 +00 10 46.55819
 2018-Oct-24 02:07  m  02 47 23.895953 +00 10 45.72645
 2018-Oct-24 02:08  m  02 47 23.892218 +00 10 44.89465
 2018-Oct-24 02:09  m  02 47 23.888416 +00 10 44.06279
 2018-Oct-24 02:10  m  02 47 23.884547 +00 10 43.23086
 2018-Oct-24 02:11  m  02 47 23.880612 +00 10 42.39887
 2018-Oct-24 02:12  m  02 47 23.876609 +00 10 41.56682
 2018-Oct-24 02:13  m  02 47 23.872541 +00 10 40.73471
 2018-Oct-24 02:14  m  02 47 23.868406 +00 10 39.90254
 2018-Oct-24 02:15  m  02 47 23.864205 +00 10 39.07030
 2018-Oct-24 02:16  m  02 47 23.859939 +00 10 38.23801
 2018-Oct-24 02:17  m  02 47 23.855608 +00 10 37.40565
 2018-Oct-24 02:18  m  02 47 23.851211 +00 10 36.57323
 2018-Oct-24 02:19  m  02 47 23.846750 +00 10 35.74074
 2018-Oct-24 02:20  m  02 47 23.842224 +00 10 34.90820
 2018-Oct-24 02:21  m  02 47 23.837634 +00 10 34.07559
 2018-Oct-24 02:22  m  02 47 23.832980 +00 10 33.24292
 2018-Oct-24 02:23  m  02 47 23.828263 +00 10 32.41019
 2018-Oct-24 02:24  m  02 47 23.823481 +00 10 31.57740
 2018-Oct-24 02:25  m  02 47 23.818637 +00 10 30.74455
 2018-Oct-24 02:26  m  02 47 23.813730 +00 10 29.91163
 2018-Oct-24 02:27  m  02 47 23.808760 +00 10 29.07865
 2018-Oct-24 02:28  m  02 47 23.803727 +00 10 28.24561
 2018-Oct-24 02:29  m  02 47 23.798633 +00 10 27.41251
 2018-Oct-24 02:30  m  02 47 23.793477 +00 10 26.57934
 2018-Oct-24 02:31  m  02 47 23.788259 +00 10 25.74611
 2018-Oct-24 02:32  m  02 47 23.782980 +00 10 24.91283
 2018-Oct-24 02:33  m  02 47 23.777640 +00 10 24.07948
 2018-Oct-24 02:34  m  02 47 23.772239 +00 10 23.24606
 2018-Oct-24 02:35  m  02 47 23.766778 +00 10 22.41259
 2018-Oct-24 02:36  m  02 47 23.761256 +00 10 21.57905
 2018-Oct-24 02:37  m  02 47 23.755675 +00 10 20.74545
 2018-Oct-24 02:38  m  02 47 23.750034 +00 10 19.91179
 2018-Oct-24 02:39  m  02 47 23.744334 +00 10 19.07807
 2018-Oct-24 02:40  m  02 47 23.738574 +00 10 18.24428
 2018-Oct-24 02:41  m  02 47 23.732756 +00 10 17.41043
 2018-Oct-24 02:42  m  02 47 23.726880 +00 10 16.57652
 2018-Oct-24 02:43  m  02 47 23.720945 +00 10 15.74255
 2018-Oct-24 02:44  m  02 47 23.714953 +00 10 14.90852
 2018-Oct-24 02:45  m  02 47 23.708902 +00 10 14.07442
 2018-Oct-24 02:46  m  02 47 23.702795 +00 10 13.24026
 2018-Oct-24 02:47  m  02 47 23.696631 +00 10 12.40604
 2018-Oct-24 02:48  m  02 47 23.690409 +00 10 11.57176
 2018-Oct-24 02:49  m  02 47 23.684132 +00 10 10.73741
 2018-Oct-24 02:50  m  02 47 23.677798 +00 10 09.90301
 2018-Oct-24 02:51  m  02 47 23.671409 +00 10 09.06854
 2018-Oct-24 02:52  m  02 47 23.664964 +00 10 08.23401
 2018-Oct-24 02:53  m  02 47 23.658463 +00 10 07.39941
 2018-Oct-24 02:54  m  02 47 23.651908 +00 10 06.56476
 2018-Oct-24 02:55  m  02 47 23.645298 +00 10 05.73004
 2018-Oct-24 02:56  m  02 47 23.638634 +00 10 04.89526
 2018-Oct-24 02:57  m  02 47 23.631916 +00 10 04.06042
 2018-Oct-24 02:58  m  02 47 23.625144 +00 10 03.22551
 2018-Oct-24 02:59  m  02 47 23.618319 +00 10 02.39055
 2018-Oct-24 03:00  m  02 47 23.611441 +00 10 01.55552
 2018-Oct-24 03:01  m  02 47 23.604510 +00 10 00.72043
 2018-Oct-24 03:02  m  02 47 23.597526 +00 09 59.88527
 2018-Oct-24 03:03  m  02 47 23.590491 +00 09 59.05006
 2018-Oct-24 03:04  m  02 47 23.583403 +00 09 58.21478
 2018-Oct-24 03:05  m  02 47 23.576264 +00 09 57.37944
 2018-Oct-24 03:06  m  02 47 23.569074 +00 09 56.54404
 2018-Oct-24 03:07  m  02 47 23.561832 +00 09 55.70857
 2018-Oct-24 03:08  m  02 47 23.554540 +00 09 54.87305
 2018-Oct-24 03:09  m  02 47 23.547198 +00 09 54.03746
 2018-Oct-24 03:10  m  02 47 23.539806 +00 09 53.20181
 2018-Oct-24 03:11  m  02 47 23.532364 +00 09 52.36609
 2018-Oct-24 03:12  m  02 47 23.524873 +00 09 51.53032
